start=new Date('2022-05-03T00:00:00.000Z').valueOf();
sats=[{"RA_OF_ASC_NODE":"157.3292","NORAD_CAT_ID":"46752","OBJECT_TYPE":"PAYLOAD","RCS_SIZE":"LARGE","INCLINATION":"53.0532","DECAY_DATE":null,"REV_AT_EPOCH":"8462","ELEMENT_SET_NO":"999","MEAN_MOTION":"15.06377376","SITE":"AFETR","MEAN_MOTION_DOT":"0.00000831","TLE_LINE2":"2 46752  53.0532 157.3292 0002050  40.3630 319.7510 15.06377376 84627","GP_ID":"202556200","SEMIMAJOR_AXIS":"6925.418","PERIOD":"95.594","APOAPSIS":"548.703","LAUNCH_DATE":"2020-10-24","MEAN_ANOMALY":"319.7510","EPOCH":"2022-05-02T19:29:07.111104","EPHEMERIS_TYPE":"0","MEAN_ELEMENT_THEORY":"SGP4","OBJECT_NAME":"STARLINK-1921","TIME_SYSTEM":"UTC","TLE_LINE1":"1 46752U 20074P   22122.81188786  .00000831  00000-0  74744-4 0  9995","REF_FRAME":"TEME","COUNTRY_CODE":"US","CENTER_NAME":"EARTH","PERIAPSIS":"545.863","ARG_OF_PERICENTER":"40.3630","FILE":"3426306","BSTAR":"0.00007474400000","CLASSIFICATION_TYPE":"U","OBJECT_ID":"2020-074P","ECCENTRICITY":"0.00020500","MEAN_MOTION_DDOT":"0.0000000000000"},{"APOAPSIS":"548.490","GP_ID":"202554954","TLE_LINE2":"2 46753  53.0529 158.3747 0001821  53.6345 306.4811 15.06395016 84599","SEMIMAJOR_AXIS":"6925.364","PERIOD":"95.592","EPHEMERIS_TYPE":"0","EPOCH":"2022-05-02T13:54:42.547104","MEAN_ELEMENT_THEORY":"SGP4","LAUNCH_DATE":"2020-10-24","MEAN_ANOMALY":"306.4811","OBJECT_TYPE":"PAYLOAD","NORAD_CAT_ID":"46753","RCS_SIZE":"LARGE","RA_OF_ASC_NODE":"158.3747","DECAY_DATE":null,"ELEMENT_SET_NO":"999","REV_AT_EPOCH":"8459","INCLINATION":"53.0529","MEAN_MOTION":"15.06395016","SITE":"AFETR","MEAN_MOTION_DOT":"0.00001996","FILE":"3426306","ARG_OF_PERICENTER":"53.6345","OBJECT_ID":"2020-074Q","ECCENTRICITY":"0.00018210","MEAN_MOTION_DDOT":"0.0000000000000","BSTAR":"0.00015287000000","CLASSIFICATION_TYPE":"U","OBJECT_NAME":"STARLINK-1922","TLE_LINE1":"1 46753U 20074Q   22122.57965911  .00001996  00000-0  15287-3 0  9991","TIME_SYSTEM":"UTC","PERIAPSIS":"545.968","CENTER_NAME":"EARTH","COUNTRY_CODE":"US","REF_FRAME":"TEME"},{"FILE":"3426306","ARG_OF_PERICENTER":"49.5103","OBJECT_ID":"2020-074R","ECCENTRICITY":"0.00015880","MEAN_MOTION_DDOT":"0.0000000000000","BSTAR":"0.00018373000000","CLASSIFICATION_TYPE":"U","OBJECT_NAME":"STARLINK-1923","TLE_LINE1":"1 46754U 20074R   22122.78607867  .00002456  00000-0  18373-3 0  9999","TIME_SYSTEM":"UTC","PERIAPSIS":"546.137","COUNTRY_CODE":"US","CENTER_NAME":"EARTH","REF_FRAME":"TEME","APOAPSIS":"548.337","TLE_LINE2":"2 46754  53.0539 157.4449 0001588  49.5103 310.6024 15.06392282 84625","SEMIMAJOR_AXIS":"6925.372","GP_ID":"202555204","PERIOD":"95.593","EPHEMERIS_TYPE":"0","EPOCH":"2022-05-02T18:51:57.197088","MEAN_ELEMENT_THEORY":"SGP4","LAUNCH_DATE":"2020-10-24","MEAN_ANOMALY":"310.6024","OBJECT_TYPE":"PAYLOAD","NORAD_CAT_ID":"46754","RCS_SIZE":"LARGE","RA_OF_ASC_NODE":"157.4449","DECAY_DATE":null,"REV_AT_EPOCH":"8462","MEAN_MOTION":"15.06392282","ELEMENT_SET_NO":"999","INCLINATION":"53.0539","MEAN_MOTION_DOT":"0.00002456","SITE":"AFETR"},{"OBJECT_NAME":"STARLINK-1924","TIME_SYSTEM":"UTC","TLE_LINE1":"1 46755U 20074S   22122.59210866  .00000559  00000-0  56448-4 0  9996","REF_FRAME":"TEME","COUNTRY_CODE":"US","CENTER_NAME":"EARTH","PERIAPSIS":"545.802","ARG_OF_PERICENTER":"43.3326","FILE":"3426306","BSTAR":"0.00005644800000","CLASSIFICATION_TYPE":"U","ECCENTRICITY":"0.00021380","OBJECT_ID":"2020-074S","MEAN_MOTION_DDOT":"0.0000000000000","RA_OF_ASC_NODE":"163.3178","OBJECT_TYPE":"PAYLOAD","NORAD_CAT_ID":"46755","RCS_SIZE":"LARGE","DECAY_DATE":null,"REV_AT_EPOCH":"8452","INCLINATION":"53.0539","ELEMENT_SET_NO":"999","MEAN_MOTION":"15.06377524","MEAN_MOTION_DOT":"0.00000559","SITE":"AFETR","SEMIMAJOR_AXIS":"6925.417","TLE_LINE2":"2 46755  53.0539 163.3178 0002138  43.3326 316.7831 15.06377524 84526","GP_ID":"202556454","PERIOD":"95.594","APOAPSIS":"548.763","LAUNCH_DATE":"2020-10-24","MEAN_ANOMALY":"316.7831","EPOCH":"2022-05-02T14:12:38.188224","EPHEMERIS_TYPE":"0","MEAN_ELEMENT_THEORY":"SGP4"},{"RA_OF_ASC_NODE":"163.3672","OBJECT_TYPE":"PAYLOAD","NORAD_CAT_ID":"46756","RCS_SIZE":"LARGE","ELEMENT_SET_NO":"999","DECAY_DATE":null,"REV_AT_EPOCH":"8452","INCLINATION":"53.0524","MEAN_MOTION":"15.06398219","SITE":"AFETR","MEAN_MOTION_DOT":"0.00002686","GP_ID":"202556700","TLE_LINE2":"2 46756  53.0524 163.3672 0002180  38.6621 321.4524 15.06398219 84528","SEMIMAJOR_AXIS":"6925.354","PERIOD":"95.592","APOAPSIS":"548.729","LAUNCH_DATE":"2020-10-24","MEAN_ANOMALY":"321.4524","EPHEMERIS_TYPE":"0","EPOCH":"2022-05-02T14:00:39.172608","MEAN_ELEMENT_THEORY":"SGP4","OBJECT_NAME":"STARLINK-1925","TIME_SYSTEM":"UTC","TLE_LINE1":"1 46756U 20074T   22122.58378672  .00002686  00000-0  19916-3 0  9997","COUNTRY_CODE":"US","CENTER_NAME":"EARTH","REF_FRAME":"TEME","PERIAPSIS":"545.709","ARG_OF_PERICENTER":"38.6621","FILE":"3426306","BSTAR":"0.00019916000000","CLASSIFICATION_TYPE":"U","ECCENTRICITY":"0.00021800","OBJECT_ID":"2020-074T","MEAN_MOTION_DDOT":"0.0000000000000"},{"CLASSIFICATION_TYPE":"U","BSTAR":"-0.00000710730000","MEAN_MOTION_DDOT":"0.0000000000000","OBJECT_ID":"2020-074U","ECCENTRICITY":"0.00020410","ARG_OF_PERICENTER":"41.3392","FILE":"3426306","COUNTRY_CODE":"US","CENTER_NAME":"EARTH","REF_FRAME":"TEME","PERIAPSIS":"545.866","TLE_LINE1":"1 46757U 20074U   22122.81233164 -.00000387  00000-0 -71073-5 0  9992","TIME_SYSTEM":"UTC","OBJECT_NAME":"STARLINK-1926","MEAN_ANOMALY":"318.7751","LAUNCH_DATE":"2020-10-24","MEAN_ELEMENT_THEORY":"SGP4","EPHEMERIS_TYPE":"0","EPOCH":"2022-05-02T19:29:45.453696","PERIOD":"95.593","TLE_LINE2":"2 46757  53.0534 162.3453 0002041  41.3392 318.7751 15.06378603 84557","SEMIMAJOR_AXIS":"6925.414","GP_ID":"202555455","APOAPSIS":"548.693","MEAN_MOTION_DOT":"-0.00000387","SITE":"AFETR","DECAY_DATE":null,"REV_AT_EPOCH":"8455","ELEMENT_SET_NO":"999","INCLINATION":"53.0534","MEAN_MOTION":"15.06378603","RA_OF_ASC_NODE":"162.3453","RCS_SIZE":"LARGE","NORAD_CAT_ID":"46757","OBJECT_TYPE":"PAYLOAD"},{"PERIOD":"95.593","SEMIMAJOR_AXIS":"6925.400","TLE_LINE2":"2 46758  53.0532 162.2132 0002396  34.8260 325.2886 15.06383330 84569","GP_ID":"202555705","APOAPSIS":"548.924","MEAN_ANOMALY":"325.2886","LAUNCH_DATE":"2020-10-24","MEAN_ELEMENT_THEORY":"SGP4","EPHEMERIS_TYPE":"0","EPOCH":"2022-05-02T20:08:15.857088","RA_OF_ASC_NODE":"162.2132","RCS_SIZE":"LARGE","OBJECT_TYPE":"PAYLOAD","NORAD_CAT_ID":"46758","MEAN_MOTION_DOT":"-0.00000387","SITE":"AFETR","DECAY_DATE":null,"REV_AT_EPOCH":"8456","ELEMENT_SET_NO":"999","MEAN_MOTION":"15.06383330","INCLINATION":"53.0532","ARG_OF_PERICENTER":"34.8260","FILE":"3426306","CLASSIFICATION_TYPE":"U","BSTAR":"-0.00000706840000","MEAN_MOTION_DDOT":"0.0000000000000","OBJECT_ID":"2020-074V","ECCENTRICITY":"0.00023960","TLE_LINE1":"1 46758U 20074V   22122.83907242 -.00000387  00000-0 -70684-5 0  9997","TIME_SYSTEM":"UTC","OBJECT_NAME":"STARLINK-1928","CENTER_NAME":"EARTH","COUNTRY_CODE":"US","REF_FRAME":"TEME","PERIAPSIS":"545.605"},{"DECAY_DATE":null,"ELEMENT_SET_NO":"999","REV_AT_EPOCH":"8441","MEAN_MOTION":"15.06386493","INCLINATION":"53.0538","MEAN_MOTION_DOT":"-0.00001266","SITE":"AFETR","NORAD_CAT_ID":"46759","OBJECT_TYPE":"PAYLOAD","RCS_SIZE":"LARGE","RA_OF_ASC_NODE":"172.2376","EPHEMERIS_TYPE":"0","EPOCH":"2022-05-02T20:01:36.550848","MEAN_ELEMENT_THEORY":"SGP4","LAUNCH_DATE":"2020-10-24","MEAN_ANOMALY":"311.7066","APOAPSIS":"548.441","GP_ID":"202555955","TLE_LINE2":"2 46759  53.0538 172.2376 0001713  48.4069 311.7066 15.06386493 84414","SEMIMAJOR_AXIS":"6925.390","PERIOD":"95.593","PERIAPSIS":"546.069","REF_FRAME":"TEME","COUNTRY_CODE":"US","CENTER_NAME":"EARTH","OBJECT_NAME":"STARLINK-1833","TIME_SYSTEM":"UTC","TLE_LINE1":"1 46759U 20074W   22122.83445082 -.00001266  00000-0 -66145-4 0  9990","ECCENTRICITY":"0.00017130","OBJECT_ID":"2020-074W","MEAN_MOTION_DDOT":"0.0000000000000","BSTAR":"-0.00006614500000","CLASSIFICATION_TYPE":"U","FILE":"3426306","ARG_OF_PERICENTER":"48.4069"},{"MEAN_MOTION_DDOT":"0.0000000000000","OBJECT_ID":"2020-074X","ECCENTRICITY":"0.00016690","CLASSIFICATION_TYPE":"U","BSTAR":"0.00026349000000","FILE":"3426198","ARG_OF_PERICENTER":"41.0553","PERIAPSIS":"546.075","COUNTRY_CODE":"US","CENTER_NAME":"EARTH","REF_FRAME":"TEME","TLE_LINE1":"1 46760U 20074X   22122.84552522  .00003645  00000-0  26349-3 0  9993","TIME_SYSTEM":"UTC","OBJECT_NAME":"STARLINK-1896","MEAN_ELEMENT_THEORY":"SGP4","EPHEMERIS_TYPE":"0","EPOCH":"2022-05-02T20:17:33.379008","MEAN_ANOMALY":"319.0561","LAUNCH_DATE":"2020-10-24","APOAPSIS":"548.387","PERIOD":"95.593","SEMIMAJOR_AXIS":"6925.366","TLE_LINE2":"2 46760  53.0540 172.1876 0001669  41.0553 319.0561 15.06394246 84449","GP_ID":"202532900","MEAN_MOTION_DOT":"0.00003645","SITE":"AFETR","INCLINATION":"53.0540","DECAY_DATE":null,"REV_AT_EPOCH":"8444","ELEMENT_SET_NO":"999","MEAN_MOTION":"15.06394246","RCS_SIZE":"LARGE","NORAD_CAT_ID":"46760","OBJECT_TYPE":"PAYLOAD","RA_OF_ASC_NODE":"172.1876"},{"OBJECT_NAME":"STARLINK-1902","TIME_SYSTEM":"UTC","TLE_LINE1":"1 46763U 20074AA  22122.54272322  .00018966  00000-0  44364-3 0  9999","PERIAPSIS":"436.780","COUNTRY_CODE":"US","REF_FRAME":"TEME","CENTER_NAME":"EARTH","FILE":"3426306","ARG_OF_PERICENTER":"10.7723","ECCENTRICITY":"0.00042020","OBJECT_ID":"2020-074AA","MEAN_MOTION_DDOT":"0.0000000000000","BSTAR":"0.00044364000000","CLASSIFICATION_TYPE":"U","NORAD_CAT_ID":"46763","OBJECT_TYPE":"PAYLOAD","RCS_SIZE":"LARGE","RA_OF_ASC_NODE":"146.9425","ELEMENT_SET_NO":"999","DECAY_DATE":null,"REV_AT_EPOCH":"8475","INCLINATION":"53.0546","MEAN_MOTION":"15.42191619","SITE":"AFETR","MEAN_MOTION_DOT":"0.00018966","APOAPSIS":"442.509","TLE_LINE2":"2 46763  53.0546 146.9425 0004202  10.7723 349.3371 15.42191619 84753","SEMIMAJOR_AXIS":"6817.779","GP_ID":"202554955","PERIOD":"93.374","EPHEMERIS_TYPE":"0","EPOCH":"2022-05-02T13:01:31.286208","MEAN_ELEMENT_THEORY":"SGP4","LAUNCH_DATE":"2020-10-24","MEAN_ANOMALY":"349.3371"}];
